GLOBAL-2                
1 43812U 18099BG  26068.69955396  .00003970  00000+0  26145-3 0  9998
2 43812  97.3697 109.3280 0007454 127.1924 232.9986 15.08046936396919
STARLINK-5445           
1 54790U 22175AJ  26068.29974392 -.00001468  00000+0 -74151-4 0  9991
2 54790  53.2188  30.6625 0001380  85.3095 274.8055 15.08839125180077
