[{"OBJECT_NAME":"GLOBAL-2","OBJECT_ID":"2018-099BG","EPOCH":"2026-03-09T16:47:21.463008","MEAN_MOTION":15.08046936,"ECCENTRICITY":0.00074537,"INCLINATION":97.3697,"RA_OF_ASC_NODE":109.328,"ARG_OF_PERICENTER":127.1924,"MEAN_ANOMALY":232.9986,"EPHEMERIS_TYPE":0,"CLASSIFICATION_TYPE":"U","NORAD_CAT_ID":43812,"ELEMENT_SET_NO":999,"REV_AT_EPOCH":39691,"BSTAR":0.0002614533,"MEAN_MOTION_DOT":3.97e-5,"MEAN_MOTION_DDOT":0},{"OBJECT_NAME":"STARLINK-5445","OBJECT_ID":"2022-175AJ","EPOCH":"2026-03-09T07:11:37.874688","MEAN_MOTION":15.08839125,"ECCENTRICITY":0.00013807,"INCLINATION":53.2188,"RA_OF_ASC_NODE":30.6625,"ARG_OF_PERICENTER":85.3095,"MEAN_ANOMALY":274.8055,"EPHEMERIS_TYPE":0,"CLASSIFICATION_TYPE":"U","NORAD_CAT_ID":54790,"ELEMENT_SET_NO":999,"REV_AT_EPOCH":18007,"BSTAR":-7.4150661e-5,"MEAN_MOTION_DOT":-1.468e-5,"MEAN_MOTION_DDOT":0}]
